*******************************************************************************
 Revised: Jul 31, 2013          Mars Barycenter                               4
 
 Dynamical point:
 ---------------
 The common center of mass about which the Martian system (planet and
 satellites Phobos and Deimos) revolve.
*******************************************************************************
 
 
*******************************************************************************
Ephemeris / WWW_USER Fri Jun 19 18:10:39 2020 Pasadena, USA      / Horizons
*******************************************************************************
Target body name: Mars Barycenter (4)             {source: DE431mx}
Center body name: Solar System Barycenter (0)     {source: DE431mx}
Center-site name: BODY CENTER
*******************************************************************************
Start time      : A.D. 1969-Jun-28 00:00:00.0000 TDB
Stop  time      : A.D. 2071-May-04 00:00:00.0000 TDB
Step-size       : 7200 minutes
*******************************************************************************
Center geodetic : 0.00000000,0.00000000,0.0000000 {E-lon(deg),Lat(deg),Alt(km)}
Center cylindric: 0.00000000,0.00000000,0.0000000 {E-lon(deg),Dxy(km),Dz(km)}
Center radii    : (undefined)                                                  
Output units    : AU-D
Output type     : GEOMETRIC cartesian states
Output format   : 2 (position and velocity)
Reference frame : Ecliptic of J2000.0
*******************************************************************************
            JDTDB,            Calendar Date (TDB),        delta-T,                      X,                      Y,                      Z,                     VX,                     VY,                     VZ,
******************************************************************************************************************************************************************************************************************
$$SOE
2452240.500000000, A.D. 2001-Nov-27 00:00:00.0000,      64.183006,  1.389089248663709E+00,  1.108273938612702E-01, -3.165511055552955E-02, -6.191909152894205E-04,  1.513852946095122E-02,  3.323204957039594E-04,
2452245.500000000, A.D. 2001-Dec-02 00:00:00.0000,      64.183121,  1.384108931418136E+00,  1.863281646865424E-01, -2.995122138218416E-02, -1.371594362745594E-03,  1.505505995541940E-02,  3.490614559519931E-04,
2452250.500000000, A.D. 2001-Dec-07 00:00:00.0000,      64.183243,  1.375388729929771E+00,  2.613115591248953E-01, -2.816626672746425E-02, -2.114746478203619E-03,  1.493173541650937E-02,  3.647401819578294E-04,
2452255.500000000, A.D. 2001-Dec-12 00:00:00.0000,      64.183372,  1.362980779545016E+00,  3.355807846494790E-01, -2.630565023615261E-02, -2.846314867897876E-03,  1.476957541793224E-02,  3.793207086367905E-04,
2452260.500000000, A.D. 2001-Dec-17 00:00:00.0000,      64.183508,  1.346948581487838E+00,  4.089445321443123E-01, -2.437494002652254E-02, -3.564087482366943E-03,  1.456975127594298E-02,  3.927732067362599E-04,
2452265.500000000, A.D. 2001-Dec-22 00:00:00.0000,      64.183647,  1.327366374232493E+00,  4.812176968338836E-01, -2.237983814131415E-02, -4.265983035552082E-03,  1.433357081277268E-02,  4.050739197670033E-04,
2452270.500000000, A.D. 2001-Dec-27 00:00:00.0000,      64.183787,  1.304318457940902E+00,  5.522220214316601E-01, -2.032615047426738E-02, -4.950059358965579E-03,  1.406246253069667E-02,  4.162050378796858E-04,
2452275.500000000, A.D. 2002-Jan-01 00:00:00.0000,      64.183927,  1.277898482264971E+00,  6.217866592986573E-01, -1.821975747131355E-02, -5.614519707991210E-03,  1.375795948945556E-02,  4.261545152858286E-04,
2452280.500000000, A.D. 2002-Jan-06 00:00:00.0000,      64.184069,  1.248208707623925E+00,  6.897486568242363E-01, -1.606658587083201E-02, -6.257717078271055E-03,  1.342168316172010E-02,  4.349158384533234E-04,
2452285.500000000, A.D. 2002-Jan-11 00:00:00.0000,      64.184213,  1.215359249688603E+00,  7.559533555547044E-01, -1.387258171077184E-02, -6.878156624699713E-03,  1.305532751548897E-02,  4.424877523266776E-04,
2452290.500000000, A.D. 2002-Jan-16 00:00:00.0000,      64.184355,  1.179467316258388E+00,  8.202547157571390E-01, -1.164368479516211E-02, -7.474496309540524E-03,  1.266064353857723E-02,  4.488739514995838E-04,
2452295.500000000, A.D. 2002-Jan-21 00:00:00.0000,      64.184494,  1.140656444990905E+00,  8.825155640998250E-01, -9.385804776321198E-03, -8.045545942367333E-03,  1.223942439119624E-02,  4.540827444263970E-04,
2452300.500000000, A.D. 2002-Jan-26 00:00:00.0000,      64.184627,  1.099055749604208E+00,  9.426077690411352E-01, -7.104798961906553E-03, -8.590264776099768E-03,  1.179349136381929E-02,  4.581267006833888E-04,
2452305.500000000, A.D. 2002-Jan-31 00:00:00.0000,      64.184755,  1.054799181400341E+00,  1.000412348306051E+00, -4.806451915424666E-03, -9.107757809143345E-03,  1.132468077052289E-02,  4.610222868951226E-04,
2452310.500000000, A.D. 2002-Feb-05 00:00:00.0000,      64.184878,  1.008024812136533E+00,  1.055819513329710E+00, -2.496456897724871E-03, -9.597270978126522E-03,  1.083483185291308E-02,  4.627894953459613E-04,
2452315.500000000, A.D. 2002-Feb-10 00:00:00.0000,      64.184995,  9.588741432917979E-01,  1.108728655878857E+00, -1.803991695807261E-04, -1.005818543776217E-02,  1.032577575689356E-02,  4.634514720992662E-04,
2452320.500000000, A.D. 2002-Feb-15 00:00:00.0000,      64.185106,  9.074914458480580E-01,  1.159048282333756E+00,  2.136258857808325E-03, -1.049001110320826E-02,  9.799325624738389E-03,  4.630341505451446E-04,
2452325.500000000, A.D. 2002-Feb-20 00:00:00.0000,      64.185207,  8.540231338596754E-01,  1.206695901252969E+00,  4.448190662887094E-03, -1.089237961913232E-02,  9.257267816202215E-03,  4.615658947101274E-04,
2452330.500000000, A.D. 2002-Feb-25 00:00:00.0000,      64.185298,  7.986171742834178E-01,  1.251597869849425E+00,  6.750216902190531E-03, -1.126503691162388E-02,  8.701354248639881E-03,  4.590771558358506E-04,
2452335.500000000, A.D. 2002-Mar-02 00:00:00.0000,      64.185377,  7.414225347879133E-01,  1.293689204909215E+00,  9.037315021058794E-03, -1.160783546745366E-02,  8.133295827953921E-03,  4.556001451435563E-04,
2452340.500000000, A.D. 2002-Mar-07 00:00:00.0000,      64.185448,  6.825886705733746E-01,  1.332913363505546E+00,  1.130462727357721E-02, -1.192072647123596E-02,  7.554756927519911E-03,  4.511685250938164E-04,
2452345.500000000, A.D. 2002-Mar-12 00:00:00.0000,      64.185508,  6.222650506167221E-01,  1.369221998615977E+00,  1.354746724874912E-02, -1.220375191611457E-02,  6.967350860706543E-03,  4.458171208598520E-04,
2452350.500000000, A.D. 2002-Mar-17 00:00:00.0000,      64.185558,  5.606007232170800E-01,  1.402574694456507E+00,  1.576132500711765E-02, -1.245703678839753E-02,  6.372636284033758E-03,  4.395816531852381E-04,
2452355.500000000, A.D. 2002-Mar-22 00:00:00.0000,      64.185596,  4.977439202523531E-01,  1.432938686015503E+00,  1.794187093663454E-02, -1.268078141146667E-02,  5.772114462114071E-03,  4.324984932980991E-04,
2452360.500000000, A.D. 2002-Mar-27 00:00:00.0000,      64.185620,  4.338416991680805E-01,  1.460288566916279E+00,  2.008495843876246E-02, -1.287525401951125E-02,  5.167227321879085E-03,  4.246044400859406E-04,
2452365.500000000, A.D. 2002-Apr-01 00:00:00.0000,      64.185631,  3.690396214028717E-01,  1.484605989368961E+00,  2.218662555567696E-02, -1.304078361739901E-02,  4.559356221515056E-03,  4.159365192813117E-04,
2452370.500000000, A.D. 2002-Apr-06 00:00:00.0000,      64.185631,  3.034814657067829E-01,  1.505879359595980E+00,  2.424309564706296E-02, -1.317775316980008E-02,  3.949821358251647E-03,  4.065318039621266E-04,
2452375.500000000, A.D. 2002-Apr-11 00:00:00.0000,      64.185621,  2.373089746224732E-01,  1.524103531734114E+00,  2.625077722051165E-02, -1.328659315154375E-02,  3.339881738508649E-03,  3.964272552909556E-04,
2452380.500000000, A.D. 2002-Apr-16 00:00:00.0000,      64.185599,  1.706616322612760E-01,  1.539279502836800E+00,  2.820626301341195E-02, -1.336777548238376E-02,  2.730735635499826E-03,  3.856595821097516E-04,
2452385.500000000, A.D. 2002-Apr-21 00:00:00.0000,      64.185565,  1.036764714111047E-01,  1.551414111229228E+00,  3.010632841676418E-02, -1.342180786158535E-02,  2.123521460302387E-03,  3.742651179008548E-04,
2452390.500000000, A.D. 2002-Apr-26 00:00:00.0000,      64.185518,  3.648790794447016E-02,  1.560519740091481E+00,  3.194792932615429E-02, -1.344922851676302E-02,  1.519318969696882E-03,  3.622797149266521E-04,
2452395.500000000, A.D. 2002-May-01 00:00:00.0000,      64.185459, -3.077239960278072E-02,  1.566614027808611E+00,  3.372819951059696E-02, -1.345060138900503E-02,  9.191507611136559E-04,  3.497386573899403E-04,
2452400.500000000, A.D. 2002-May-06 00:00:00.0000,      64.185391, -9.797566745862320E-02,  1.569719586477627E+00,  3.544444759223950E-02, -1.342651174537560E-02,  3.239840366430798E-04,  3.366765920174437E-04,
2452405.500000000, A.D. 2002-May-11 00:00:00.0000,      64.185314, -1.649960831068093E-01,  1.569863729821970E+00,  3.709415371514244E-02, -1.337756218786925E-02, -2.652674086286063E-04,  3.231274726997281E-04,
2452410.500000000, A.D. 2002-May-16 00:00:00.0000,      64.185229, -2.317108827754882E-01,  1.567078211479010E+00,  3.867496596904949E-02, -1.330436904105829E-02, -8.477410344503179E-04,  3.091245176526296E-04,
2452415.500000000, A.D. 2002-May-21 00:00:00.0000,      64.185133, -2.980004117831204E-01,  1.561398974359352E+00,  4.018469662747147E-02, -1.320755910497734E-02, -1.422623285899255E-03,  2.947001777470812E-04,
2452420.500000000, A.D. 2002-May-26 00:00:00.0000,      64.185028, -3.637481695310175E-01,  1.552865911564629E+00,  4.162131825257301E-02, -1.308776675829802E-02, -1.989147245438447E-03,  2.798861147052987E-04,
